[{"OBJECT_NAME":"STARLINK-32811","OBJECT_ID":"2025-034L","EPOCH":"2026-03-09T22:37:18.541344","MEAN_MOTION":15.3020159,"ECCENTRICITY":0.00010564,"INCLINATION":53.1573,"RA_OF_ASC_NODE":257.0827,"ARG_OF_PERICENTER":85.8199,"MEAN_ANOMALY":274.2922,"EPHEMERIS_TYPE":0,"CLASSIFICATION_TYPE":"U","NORAD_CAT_ID":63039,"ELEMENT_SET_NO":999,"REV_AT_EPOCH":5912,"BSTAR":0.0012116752,"MEAN_MOTION_DOT":0.00035701,"MEAN_MOTION_DDOT":0},{"OBJECT_NAME":"NOAA 16 DEB","OBJECT_ID":"2000-055BK","EPOCH":"2026-03-09T02:17:10.174560","MEAN_MOTION":15.30191008,"ECCENTRICITY":0.00052528,"INCLINATION":98.9831,"RA_OF_ASC_NODE":305.6383,"ARG_OF_PERICENTER":26.64,"MEAN_ANOMALY":333.5104,"EPHEMERIS_TYPE":0,"CLASSIFICATION_TYPE":"U","NORAD_CAT_ID":41128,"ELEMENT_SET_NO":999,"REV_AT_EPOCH":53406,"BSTAR":0.017668961,"MEAN_MOTION_DOT":0.00549039,"MEAN_MOTION_DDOT":0}]
